HULIANWANG DIGUI-17     
1 62977U 25030G   26065.56524469 -.00000099  00000+0  54767-4 0  9992
2 62977  50.0046 243.6323 0000756 161.8248 198.2651 13.29338242 52218
HULIANWANG DIGUI-18     
1 62978U 25030H   26065.55687152 -.00000091  00000+0  71322-4 0  9999
2 62978  50.0051 243.5989 0000771 162.2654 197.8245 13.29338314 52219
HULIANWANG DIGUI-19     
1 62979U 25030J   26065.59007904 -.00000093  00000+0  66757-4 0  9993
2 62979  50.0036 243.7275 0000813 157.3293 202.7615 13.29341521 52215
HULIANWANG DIGUI-20     
1 63687U 25086A   26065.58138776  .00000085  00000+0  16379-3 0  9996
2 63687  86.5125 347.6841 0001762  91.5826 268.5510 13.24420278 41295
HULIANWANG DIGUI-21     
1 63688U 25086B   26065.58887833  .00000082  00000+0  15682-3 0  9995
2 63688  86.5153 347.7112 0001656  94.6293 265.5030 13.24421914 41284
HULIANWANG DIGUI-22     
1 63689U 25086C   26065.59644258  .00000063  00000+0  11379-3 0  9997
2 63689  86.5119 347.6113 0001830  91.6702 268.4642 13.24421619 41286
HULIANWANG DIGUI-23     
1 63690U 25086D   26065.61149956  .00000046  00000+0  74105-4 0  9995
2 63690  86.5160 347.7433 0001760  87.9328 272.2008 13.24422378 41286
HULIANWANG DIGUI-24     
1 63691U 25086E   26065.61911367  .00000058  00000+0  10022-3 0  9999
2 63691  86.5167 347.7675 0001805  92.3698 267.7642 13.24420487 41284
HULIANWANG DIGUI-25     
1 63692U 25086F   26065.62664416  .00000064  00000+0  11558-3 0  9993
2 63692  86.5105 347.5860 0001699  91.3625 268.7704 13.24421897 41287
HULIANWANG DIGUI-26     
1 63693U 25086G   26065.60387259  .00000058  00000+0  10157-3 0  9996
2 63693  86.5154 347.7207 0001784  96.2464 263.8873 13.24421430 41285
HULIANWANG DIGUI-27     
1 63694U 25086H   26065.63427935  .00000074  00000+0  13741-3 0  9996
2 63694  86.5115 347.6181 0001808  91.1182 269.0159 13.24420266 41282
HULIANWANG DIGUI-28     
1 63695U 25086J   26065.57376277  .00000093  00000+0  18349-3 0  9992
2 63695  86.5079 347.5425 0001811  91.1891 268.9450 13.24421581 41275
HULIANWANG DIGUI-29     
1 63696U 25086K   26065.56628758  .00000085  00000+0  16503-3 0  9997
2 63696  86.5107 347.6254 0001694  91.9120 268.2208 13.24420418 41273
HULIANWANG DIGUI-30     
1 64283U 25121A   26065.57365372  .00000030  00000+0  36809-4 0  9993
2 64283  86.4950  48.1761 0001990  77.9646 282.1711 13.24423390 36576
HULIANWANG DIGUI-31     
1 64284U 25121B   26065.64187275  .00000020  00000+0  13516-4 0  9995
2 64284  86.4971  48.2038 0002011  78.2579 281.8781 13.24419605 36580
HULIANWANG DIGUI-32     
1 64285U 25121C   26065.55840880  .00000034  00000+0  44686-4 0  9991
2 64285  86.4912  48.0607 0002002  80.2599 279.8761 13.24425355 36574
