[{"OBJECT_NAME":"HULIANWANG DIGUI-17","OBJECT_ID":"2025-030G","EPOCH":"2026-03-06T13:33:57.141216","MEAN_MOTION":13.29338242,"ECCENTRICITY":7.56e-5,"INCLINATION":50.0046,"RA_OF_ASC_NODE":243.6323,"ARG_OF_PERICENTER":161.8248,"MEAN_ANOMALY":198.2651,"EPHEMERIS_TYPE":0,"CLASSIFICATION_TYPE":"U","NORAD_CAT_ID":62977,"ELEMENT_SET_NO":999,"REV_AT_EPOCH":5221,"BSTAR":5.4767433e-5,"MEAN_MOTION_DOT":-9.9e-7,"MEAN_MOTION_DDOT":0},{"OBJECT_NAME":"HULIANWANG DIGUI-18","OBJECT_ID":"2025-030H","EPOCH":"2026-03-06T13:21:53.699328","MEAN_MOTION":13.29338314,"ECCENTRICITY":7.714e-5,"INCLINATION":50.0051,"RA_OF_ASC_NODE":243.5989,"ARG_OF_PERICENTER":162.2654,"MEAN_ANOMALY":197.8245,"EPHEMERIS_TYPE":0,"CLASSIFICATION_TYPE":"U","NORAD_CAT_ID":62978,"ELEMENT_SET_NO":999,"REV_AT_EPOCH":5221,"BSTAR":7.1322111e-5,"MEAN_MOTION_DOT":-9.1e-7,"MEAN_MOTION_DDOT":0},{"OBJECT_NAME":"HULIANWANG DIGUI-19","OBJECT_ID":"2025-030J","EPOCH":"2026-03-06T14:09:42.829056","MEAN_MOTION":13.29341521,"ECCENTRICITY":8.131e-5,"INCLINATION":50.0036,"RA_OF_ASC_NODE":243.7275,"ARG_OF_PERICENTER":157.3293,"MEAN_ANOMALY":202.7615,"EPHEMERIS_TYPE":0,"CLASSIFICATION_TYPE":"U","NORAD_CAT_ID":62979,"ELEMENT_SET_NO":999,"REV_AT_EPOCH":5221,"BSTAR":6.6756508e-5,"MEAN_MOTION_DOT":-9.3e-7,"MEAN_MOTION_DDOT":0},{"OBJECT_NAME":"HULIANWANG DIGUI-20","OBJECT_ID":"2025-086A","EPOCH":"2026-03-06T13:57:11.902464","MEAN_MOTION":13.24420278,"ECCENTRICITY":0.00017625,"INCLINATION":86.5125,"RA_OF_ASC_NODE":347.6841,"ARG_OF_PERICENTER":91.5826,"MEAN_ANOMALY":268.551,"EPHEMERIS_TYPE":0,"CLASSIFICATION_TYPE":"U","NORAD_CAT_ID":63687,"ELEMENT_SET_NO":999,"REV_AT_EPOCH":4129,"BSTAR":0.0001637931,"MEAN_MOTION_DOT":8.5e-7,"MEAN_MOTION_DDOT":0},{"OBJECT_NAME":"HULIANWANG DIGUI-21","OBJECT_ID":"2025-086B","EPOCH":"2026-03-06T14:07:59.087712","MEAN_MOTION":13.24421914,"ECCENTRICITY":0.00016566,"INCLINATION":86.5153,"RA_OF_ASC_NODE":347.7112,"ARG_OF_PERICENTER":94.6293,"MEAN_ANOMALY":265.503,"EPHEMERIS_TYPE":0,"CLASSIFICATION_TYPE":"U","NORAD_CAT_ID":63688,"ELEMENT_SET_NO":999,"REV_AT_EPOCH":4128,"BSTAR":0.00015682474,"MEAN_MOTION_DOT":8.2e-7,"MEAN_MOTION_DDOT":0},{"OBJECT_NAME":"HULIANWANG DIGUI-22","OBJECT_ID":"2025-086C","EPOCH":"2026-03-06T14:18:52.638912","MEAN_MOTION":13.24421619,"ECCENTRICITY":0.00018301,"INCLINATION":86.5119,"RA_OF_ASC_NODE":347.6113,"ARG_OF_PERICENTER":91.6702,"MEAN_ANOMALY":268.4642,"EPHEMERIS_TYPE":0,"CLASSIFICATION_TYPE":"U","NORAD_CAT_ID":63689,"ELEMENT_SET_NO":999,"REV_AT_EPOCH":4128,"BSTAR":0.00011379083,"MEAN_MOTION_DOT":6.3e-7,"MEAN_MOTION_DDOT":0},{"OBJECT_NAME":"HULIANWANG DIGUI-23","OBJECT_ID":"2025-086D","EPOCH":"2026-03-06T14:40:33.561984","MEAN_MOTION":13.24422378,"ECCENTRICITY":0.00017602,"INCLINATION":86.516,"RA_OF_ASC_NODE":347.7433,"ARG_OF_PERICENTER":87.9328,"MEAN_ANOMALY":272.2008,"EPHEMERIS_TYPE":0,"CLASSIFICATION_TYPE":"U","NORAD_CAT_ID":63690,"ELEMENT_SET_NO":999,"REV_AT_EPOCH":4128,"BSTAR":7.4105252e-5,"MEAN_MOTION_DOT":4.6e-7,"MEAN_MOTION_DDOT":0},{"OBJECT_NAME":"HULIANWANG DIGUI-24","OBJECT_ID":"2025-086E","EPOCH":"2026-03-06T14:51:31.421088","MEAN_MOTION":13.24420487,"ECCENTRICITY":0.00018059,"INCLINATION":86.5167,"RA_OF_ASC_NODE":347.7675,"ARG_OF_PERICENTER":92.3698,"MEAN_ANOMALY":267.7642,"EPHEMERIS_TYPE":0,"CLASSIFICATION_TYPE":"U","NORAD_CAT_ID":63691,"ELEMENT_SET_NO":999,"REV_AT_EPOCH":4128,"BSTAR":0.00010021975,"MEAN_MOTION_DOT":5.8e-7,"MEAN_MOTION_DDOT":0},{"OBJECT_NAME":"HULIANWANG DIGUI-25","OBJECT_ID":"2025-086F","EPOCH":"2026-03-06T15:02:22.055424","MEAN_MOTION":13.24421897,"ECCENTRICITY":0.00016995,"INCLINATION":86.5105,"RA_OF_ASC_NODE":347.586,"ARG_OF_PERICENTER":91.3625,"MEAN_ANOMALY":268.7704,"EPHEMERIS_TYPE":0,"CLASSIFICATION_TYPE":"U","NORAD_CAT_ID":63692,"ELEMENT_SET_NO":999,"REV_AT_EPOCH":4128,"BSTAR":0.00011557957,"MEAN_MOTION_DOT":6.4e-7,"MEAN_MOTION_DDOT":0},{"OBJECT_NAME":"HULIANWANG DIGUI-26","OBJECT_ID":"2025-086G","EPOCH":"2026-03-06T14:29:34.591776","MEAN_MOTION":13.2442143,"ECCENTRICITY":0.00017845,"INCLINATION":86.5154,"RA_OF_ASC_NODE":347.7207,"ARG_OF_PERICENTER":96.2464,"MEAN_ANOMALY":263.8873,"EPHEMERIS_TYPE":0,"CLASSIFICATION_TYPE":"U","NORAD_CAT_ID":63693,"ELEMENT_SET_NO":999,"REV_AT_EPOCH":4128,"BSTAR":0.0001015735,"MEAN_MOTION_DOT":5.8e-7,"MEAN_MOTION_DDOT":0},{"OBJECT_NAME":"HULIANWANG DIGUI-27","OBJECT_ID":"2025-086H","EPOCH":"2026-03-06T15:13:21.735840","MEAN_MOTION":13.24420266,"ECCENTRICITY":0.00018086,"INCLINATION":86.5115,"RA_OF_ASC_NODE":347.6181,"ARG_OF_PERICENTER":91.1182,"MEAN_ANOMALY":269.0159,"EPHEMERIS_TYPE":0,"CLASSIFICATION_TYPE":"U","NORAD_CAT_ID":63694,"ELEMENT_SET_NO":999,"REV_AT_EPOCH":4128,"BSTAR":0.00013740503,"MEAN_MOTION_DOT":7.4e-7,"MEAN_MOTION_DDOT":0},{"OBJECT_NAME":"HULIANWANG DIGUI-28","OBJECT_ID":"2025-086J","EPOCH":"2026-03-06T13:46:13.103328","MEAN_MOTION":13.24421581,"ECCENTRICITY":0.00018113,"INCLINATION":86.5079,"RA_OF_ASC_NODE":347.5425,"ARG_OF_PERICENTER":91.1891,"MEAN_ANOMALY":268.945,"EPHEMERIS_TYPE":0,"CLASSIFICATION_TYPE":"U","NORAD_CAT_ID":63695,"ELEMENT_SET_NO":999,"REV_AT_EPOCH":4127,"BSTAR":0.00018348667,"MEAN_MOTION_DOT":9.3e-7,"MEAN_MOTION_DDOT":0},{"OBJECT_NAME":"HULIANWANG DIGUI-29","OBJECT_ID":"2025-086K","EPOCH":"2026-03-06T13:35:27.246912","MEAN_MOTION":13.24420418,"ECCENTRICITY":0.00016948,"INCLINATION":86.5107,"RA_OF_ASC_NODE":347.6254,"ARG_OF_PERICENTER":91.912,"MEAN_ANOMALY":268.2208,"EPHEMERIS_TYPE":0,"CLASSIFICATION_TYPE":"U","NORAD_CAT_ID":63696,"ELEMENT_SET_NO":999,"REV_AT_EPOCH":4127,"BSTAR":0.00016502614,"MEAN_MOTION_DOT":8.5e-7,"MEAN_MOTION_DDOT":0},{"OBJECT_NAME":"HULIANWANG DIGUI-30","OBJECT_ID":"2025-121A","EPOCH":"2026-03-06T13:46:03.681408","MEAN_MOTION":13.2442339,"ECCENTRICITY":0.000199,"INCLINATION":86.495,"RA_OF_ASC_NODE":48.1761,"ARG_OF_PERICENTER":77.9646,"MEAN_ANOMALY":282.1711,"EPHEMERIS_TYPE":0,"CLASSIFICATION_TYPE":"U","NORAD_CAT_ID":64283,"ELEMENT_SET_NO":999,"REV_AT_EPOCH":3657,"BSTAR":3.6808906e-5,"MEAN_MOTION_DOT":3.0e-7,"MEAN_MOTION_DDOT":0},{"OBJECT_NAME":"HULIANWANG DIGUI-31","OBJECT_ID":"2025-121B","EPOCH":"2026-03-06T15:24:17.805600","MEAN_MOTION":13.24419605,"ECCENTRICITY":0.00020116,"INCLINATION":86.4971,"RA_OF_ASC_NODE":48.2038,"ARG_OF_PERICENTER":78.2579,"MEAN_ANOMALY":281.8781,"EPHEMERIS_TYPE":0,"CLASSIFICATION_TYPE":"U","NORAD_CAT_ID":64284,"ELEMENT_SET_NO":999,"REV_AT_EPOCH":3658,"BSTAR":1.3515542e-5,"MEAN_MOTION_DOT":2.0e-7,"MEAN_MOTION_DDOT":0},{"OBJECT_NAME":"HULIANWANG DIGUI-32","OBJECT_ID":"2025-121C","EPOCH":"2026-03-06T13:24:06.520320","MEAN_MOTION":13.24425355,"ECCENTRICITY":0.00020022,"INCLINATION":86.4912,"RA_OF_ASC_NODE":48.0607,"ARG_OF_PERICENTER":80.2599,"MEAN_ANOMALY":279.8761,"EPHEMERIS_TYPE":0,"CLASSIFICATION_TYPE":"U","NORAD_CAT_ID":64285,"ELEMENT_SET_NO":999,"REV_AT_EPOCH":3657,"BSTAR":4.4685601e-5,"MEAN_MOTION_DOT":3.4e-7,"MEAN_MOTION_DDOT":0}]
